COSMOS 2251 DEB         
1 34425U 93036RS  17345.88458361  .00000500  00000-0  14425-3 0  9996
2 34425  74.0319 151.2615 0033767 276.8224  82.9093 14.46962958463561
